[{"OBJECT_NAME":"STARLINK-31337","OBJECT_ID":"2024-027D","EPOCH":"2026-03-09T21:36:47.102688","MEAN_MOTION":15.301879,"ECCENTRICITY":0.00011755,"INCLINATION":53.1577,"RA_OF_ASC_NODE":308.4291,"ARG_OF_PERICENTER":102.9391,"MEAN_ANOMALY":257.1741,"EPHEMERIS_TYPE":0,"CLASSIFICATION_TYPE":"U","NORAD_CAT_ID":58934,"ELEMENT_SET_NO":999,"REV_AT_EPOCH":11736,"BSTAR":5.4030798e-5,"MEAN_MOTION_DOT":1.241e-5,"MEAN_MOTION_DDOT":0},{"OBJECT_NAME":"TEVEL2-5","OBJECT_ID":"2025-052E","EPOCH":"2026-03-09T23:11:54.246048","MEAN_MOTION":15.30817434,"ECCENTRICITY":0.00047002,"INCLINATION":97.4013,"RA_OF_ASC_NODE":325.3677,"ARG_OF_PERICENTER":95.3936,"MEAN_ANOMALY":264.7842,"EPHEMERIS_TYPE":0,"CLASSIFICATION_TYPE":"U","NORAD_CAT_ID":63214,"ELEMENT_SET_NO":999,"REV_AT_EPOCH":5491,"BSTAR":0.00071764727,"MEAN_MOTION_DOT":0.00021339,"MEAN_MOTION_DDOT":0}]
